<?xml version="1.0" encoding="UTF-8"?>
<ndm xmlns:xsi="http://www.w3.org/2001/XMLSchema-instance" xsi:noNamespaceSchemaLocation="https://sanaregistry.org/r/ndmxml_unqualified/ndmxml-2.0.0-master-2.0.xsd">
<omm id="CCSDS_OMM_VERS" version="2.0">
<header><CREATION_DATE/><ORIGINATOR/></header><body><segment><metadata><OBJECT_NAME>ORBCOMM FM103</OBJECT_NAME><OBJECT_ID>2014-040F</OBJECT_ID><CENTER_NAME>EARTH</CENTER_NAME><REF_FRAME>TEME</REF_FRAME><TIME_SYSTEM>UTC</TIME_SYSTEM><MEAN_ELEMENT_THEORY>SGP4</MEAN_ELEMENT_THEORY></metadata><data><meanElements><EPOCH>2024-07-19T04:24:25.860960</EPOCH><MEAN_MOTION>14.56774431</MEAN_MOTION><ECCENTRICITY>.0001758</ECCENTRICITY><INCLINATION>47.0052</INCLINATION><RA_OF_ASC_NODE>148.9525</RA_OF_ASC_NODE><ARG_OF_PERICENTER>212.5792</ARG_OF_PERICENTER><MEAN_ANOMALY>147.4985</MEAN_ANOMALY></meanElements><tleParameters><EPHEMERIS_TYPE>0</EPHEMERIS_TYPE><CLASSIFICATION_TYPE>U</CLASSIFICATION_TYPE><NORAD_CAT_ID>40091</NORAD_CAT_ID><ELEMENT_SET_NO>999</ELEMENT_SET_NO><REV_AT_EPOCH>53258</REV_AT_EPOCH><BSTAR>.48808E-3</BSTAR><MEAN_MOTION_DOT>.2037E-4</MEAN_MOTION_DOT><MEAN_MOTION_DDOT>0</MEAN_MOTION_DDOT></tleParameters></data></segment></body></omm>
<omm id="CCSDS_OMM_VERS" version="2.0">
<header><CREATION_DATE/><ORIGINATOR/></header><body><segment><metadata><OBJECT_NAME>ORBCOMM FM114</OBJECT_NAME><OBJECT_ID>2015-081A</OBJECT_ID><CENTER_NAME>EARTH</CENTER_NAME><REF_FRAME>TEME</REF_FRAME><TIME_SYSTEM>UTC</TIME_SYSTEM><MEAN_ELEMENT_THEORY>SGP4</MEAN_ELEMENT_THEORY></metadata><data><meanElements><EPOCH>2024-07-18T20:54:26.094240</EPOCH><MEAN_MOTION>14.56866561</MEAN_MOTION><ECCENTRICITY>.0001888</ECCENTRICITY><INCLINATION>47.0029</INCLINATION><RA_OF_ASC_NODE>59.6545</RA_OF_ASC_NODE><ARG_OF_PERICENTER>252.3873</ARG_OF_PERICENTER><MEAN_ANOMALY>107.6806</MEAN_ANOMALY></meanElements><tleParameters><EPHEMERIS_TYPE>0</EPHEMERIS_TYPE><CLASSIFICATION_TYPE>U</CLASSIFICATION_TYPE><NORAD_CAT_ID>41179</NORAD_CAT_ID><ELEMENT_SET_NO>999</ELEMENT_SET_NO><REV_AT_EPOCH>45584</REV_AT_EPOCH><BSTAR>.61869E-3</BSTAR><MEAN_MOTION_DOT>.2633E-4</MEAN_MOTION_DOT><MEAN_MOTION_DDOT>0</MEAN_MOTION_DDOT></tleParameters></data></segment></body></omm>
<omm id="CCSDS_OMM_VERS" version="2.0">
<header><CREATION_DATE/><ORIGINATOR/></header><body><segment><metadata><OBJECT_NAME>ORBCOMM FM119</OBJECT_NAME><OBJECT_ID>2015-081B</OBJECT_ID><CENTER_NAME>EARTH</CENTER_NAME><REF_FRAME>TEME</REF_FRAME><TIME_SYSTEM>UTC</TIME_SYSTEM><MEAN_ELEMENT_THEORY>SGP4</MEAN_ELEMENT_THEORY></metadata><data><meanElements><EPOCH>2024-07-18T20:17:02.149728</EPOCH><MEAN_MOTION>14.56758782</MEAN_MOTION><ECCENTRICITY>.0001918</ECCENTRICITY><INCLINATION>47.0025</INCLINATION><RA_OF_ASC_NODE>328.9977</RA_OF_ASC_NODE><ARG_OF_PERICENTER>294.3709</ARG_OF_PERICENTER><MEAN_ANOMALY>65.6976</MEAN_ANOMALY></meanElements><tleParameters><EPHEMERIS_TYPE>0</EPHEMERIS_TYPE><CLASSIFICATION_TYPE>U</CLASSIFICATION_TYPE><NORAD_CAT_ID>41180</NORAD_CAT_ID><ELEMENT_SET_NO>999</ELEMENT_SET_NO><REV_AT_EPOCH>45709</REV_AT_EPOCH><BSTAR>.46927E-3</BSTAR><MEAN_MOTION_DOT>.1952E-4</MEAN_MOTION_DOT><MEAN_MOTION_DDOT>0</MEAN_MOTION_DDOT></tleParameters></data></segment></body></omm>
<omm id="CCSDS_OMM_VERS" version="2.0">
<header><CREATION_DATE/><ORIGINATOR/></header><body><segment><metadata><OBJECT_NAME>ORBCOMM FM105</OBJECT_NAME><OBJECT_ID>2015-081C</OBJECT_ID><CENTER_NAME>EARTH</CENTER_NAME><REF_FRAME>TEME</REF_FRAME><TIME_SYSTEM>UTC</TIME_SYSTEM><MEAN_ELEMENT_THEORY>SGP4</MEAN_ELEMENT_THEORY></metadata><data><meanElements><EPOCH>2024-07-18T15:32:25.550016</EPOCH><MEAN_MOTION>14.44483793</MEAN_MOTION><ECCENTRICITY>.0002659</ECCENTRICITY><INCLINATION>47.0026</INCLINATION><RA_OF_ASC_NODE>303.1939</RA_OF_ASC_NODE><ARG_OF_PERICENTER>263.7041</ARG_OF_PERICENTER><MEAN_ANOMALY>96.3536</MEAN_ANOMALY></meanElements><tleParameters><EPHEMERIS_TYPE>0</EPHEMERIS_TYPE><CLASSIFICATION_TYPE>U</CLASSIFICATION_TYPE><NORAD_CAT_ID>41181</NORAD_CAT_ID><ELEMENT_SET_NO>999</ELEMENT_SET_NO><REV_AT_EPOCH>45251</REV_AT_EPOCH><BSTAR>.30775E-3</BSTAR><MEAN_MOTION_DOT>.915E-5</MEAN_MOTION_DOT><MEAN_MOTION_DDOT>0</MEAN_MOTION_DDOT></tleParameters></data></segment></body></omm>
<omm id="CCSDS_OMM_VERS" version="2.0">
<header><CREATION_DATE/><ORIGINATOR/></header><body><segment><metadata><OBJECT_NAME>ORBCOMM FM110</OBJECT_NAME><OBJECT_ID>2015-081D</OBJECT_ID><CENTER_NAME>EARTH</CENTER_NAME><REF_FRAME>TEME</REF_FRAME><TIME_SYSTEM>UTC</TIME_SYSTEM><MEAN_ELEMENT_THEORY>SGP4</MEAN_ELEMENT_THEORY></metadata><data><meanElements><EPOCH>2024-07-18T20:22:36.080544</EPOCH><MEAN_MOTION>14.56832577</MEAN_MOTION><ECCENTRICITY>.0001325</ECCENTRICITY><INCLINATION>47.0019</INCLINATION><RA_OF_ASC_NODE>59.1679</RA_OF_ASC_NODE><ARG_OF_PERICENTER>79.4622</ARG_OF_PERICENTER><MEAN_ANOMALY>280.6412</MEAN_ANOMALY></meanElements><tleParameters><EPHEMERIS_TYPE>0</EPHEMERIS_TYPE><CLASSIFICATION_TYPE>U</CLASSIFICATION_TYPE><NORAD_CAT_ID>41182</NORAD_CAT_ID><ELEMENT_SET_NO>999</ELEMENT_SET_NO><REV_AT_EPOCH>45571</REV_AT_EPOCH><BSTAR>.62468E-3</BSTAR><MEAN_MOTION_DOT>.2658E-4</MEAN_MOTION_DOT><MEAN_MOTION_DDOT>0</MEAN_MOTION_DDOT></tleParameters></data></segment></body></omm>
<omm id="CCSDS_OMM_VERS" version="2.0">
<header><CREATION_DATE/><ORIGINATOR/></header><body><segment><metadata><OBJECT_NAME>ORBCOMM FM113</OBJECT_NAME><OBJECT_ID>2015-081G</OBJECT_ID><CENTER_NAME>EARTH</CENTER_NAME><REF_FRAME>TEME</REF_FRAME><TIME_SYSTEM>UTC</TIME_SYSTEM><MEAN_ELEMENT_THEORY>SGP4</MEAN_ELEMENT_THEORY></metadata><data><meanElements><EPOCH>2024-07-18T19:10:58.077120</EPOCH><MEAN_MOTION>14.56752354</MEAN_MOTION><ECCENTRICITY>.0001931</ECCENTRICITY><INCLINATION>47.0016</INCLINATION><RA_OF_ASC_NODE>328.6942</RA_OF_ASC_NODE><ARG_OF_PERICENTER>284.4023</ARG_OF_PERICENTER><MEAN_ANOMALY>75.6648</MEAN_ANOMALY></meanElements><tleParameters><EPHEMERIS_TYPE>0</EPHEMERIS_TYPE><CLASSIFICATION_TYPE>U</CLASSIFICATION_TYPE><NORAD_CAT_ID>41185</NORAD_CAT_ID><ELEMENT_SET_NO>999</ELEMENT_SET_NO><REV_AT_EPOCH>45701</REV_AT_EPOCH><BSTAR>.66962E-3</BSTAR><MEAN_MOTION_DOT>.2857E-4</MEAN_MOTION_DOT><MEAN_MOTION_DDOT>0</MEAN_MOTION_DDOT></tleParameters></data></segment></body></omm>

</ndm>
